CCSDS_OMM_VERS = 2.0
CREATION_DATE  = 
ORIGINATOR     = 

OBJECT_NAME    = ISS (ZARYA)
OBJECT_ID      = 1998-067A
CENTER_NAME    = EARTH
REF_FRAME      = TEME
TIME_SYSTEM    = UTC
MEAN_ELEMENT_THEORY = SGP/SGP4

EPOCH          = 2025-12-10T22:17:24.112320
MEAN_MOTION    = 15.49489378
ECCENTRICITY   = .0003351
INCLINATION    = 51.6309
RA_OF_ASC_NODE = 151.4463
ARG_OF_PERICENTER = 232.8214
MEAN_ANOMALY   = 127.2469

EPHEMERIS_TYPE = 0
CLASSIFICATION_TYPE = U
NORAD_CAT_ID   = 25544
ELEMENT_SET_NO = 999
REV_AT_EPOCH   = 54257
BSTAR          = .26509E-3
MEAN_MOTION_DOT = .14434E-3
MEAN_MOTION_DDOT = 0

CCSDS_OMM_VERS = 2.0
CREATION_DATE  = 
ORIGINATOR     = 

OBJECT_NAME    = CZ-4B R/B
OBJECT_ID      = 1999-025C
CENTER_NAME    = EARTH
REF_FRAME      = TEME
TIME_SYSTEM    = UTC
MEAN_ELEMENT_THEORY = SGP/SGP4

EPOCH          = 2025-12-11T03:01:59.116224
MEAN_MOTION    = 14.18242935
ECCENTRICITY   = .003624
INCLINATION    = 98.6771
RA_OF_ASC_NODE = 26.4425
ARG_OF_PERICENTER = 238.7589
MEAN_ANOMALY   = 181.4957

EPHEMERIS_TYPE = 0
CLASSIFICATION_TYPE = U
NORAD_CAT_ID   = 25732
ELEMENT_SET_NO = 999
REV_AT_EPOCH   = 37561
BSTAR          = .72796E-4
MEAN_MOTION_DOT = .107E-5
MEAN_MOTION_DDOT = 0

CCSDS_OMM_VERS = 2.0
CREATION_DATE  = 
ORIGINATOR     = 

OBJECT_NAME    = OKEAN-O
OBJECT_ID      = 1999-039A
CENTER_NAME    = EARTH
REF_FRAME      = TEME
TIME_SYSTEM    = UTC
MEAN_ELEMENT_THEORY = SGP/SGP4

EPOCH          = 2025-12-11T04:00:40.940064
MEAN_MOTION    = 14.80157062
ECCENTRICITY   = .0000805
INCLINATION    = 97.9603
RA_OF_ASC_NODE = 40.8823
ARG_OF_PERICENTER = 95.4662
MEAN_ANOMALY   = 264.6641

EPHEMERIS_TYPE = 0
CLASSIFICATION_TYPE = U
NORAD_CAT_ID   = 25860
ELEMENT_SET_NO = 999
REV_AT_EPOCH   = 42129
BSTAR          = .16603E-3
MEAN_MOTION_DOT = .1208E-4
MEAN_MOTION_DDOT = 0

CCSDS_OMM_VERS = 2.0
CREATION_DATE  = 
ORIGINATOR     = 

OBJECT_NAME    = SL-16 R/B
OBJECT_ID      = 1999-039B
CENTER_NAME    = EARTH
REF_FRAME      = TEME
TIME_SYSTEM    = UTC
MEAN_ELEMENT_THEORY = SGP/SGP4

EPOCH          = 2025-12-11T03:55:46.545024
MEAN_MOTION    = 14.81582816
ECCENTRICITY   = .0014803
INCLINATION    = 98.0127
RA_OF_ASC_NODE = 39.3148
ARG_OF_PERICENTER = 179.7444
MEAN_ANOMALY   = 180.3779

EPHEMERIS_TYPE = 0
CLASSIFICATION_TYPE = U
NORAD_CAT_ID   = 25861
ELEMENT_SET_NO = 999
REV_AT_EPOCH   = 42375
BSTAR          = .13046E-3
MEAN_MOTION_DOT = .972E-5
MEAN_MOTION_DDOT = 0

CCSDS_OMM_VERS = 2.0
CREATION_DATE  = 
ORIGINATOR     = 

OBJECT_NAME    = DELTA 2 R/B
OBJECT_ID      = 1999-041E
CENTER_NAME    = EARTH
REF_FRAME      = TEME
TIME_SYSTEM    = UTC
MEAN_ELEMENT_THEORY = SGP/SGP4

EPOCH          = 2025-12-11T03:44:22.506720
MEAN_MOTION    = 14.11393857
ECCENTRICITY   = .0504726
INCLINATION    = 51.7615
RA_OF_ASC_NODE = 294.7688
ARG_OF_PERICENTER = 87.0967
MEAN_ANOMALY   = 278.7589

EPHEMERIS_TYPE = 0
CLASSIFICATION_TYPE = U
NORAD_CAT_ID   = 25876
ELEMENT_SET_NO = 999
REV_AT_EPOCH   = 35052
BSTAR          = .29862E-3
MEAN_MOTION_DOT = .161E-4
MEAN_MOTION_DDOT = 0

CCSDS_OMM_VERS = 2.0
CREATION_DATE  = 
ORIGINATOR     = 

OBJECT_NAME    = HELIOS 1B
OBJECT_ID      = 1999-064A
CENTER_NAME    = EARTH
REF_FRAME      = TEME
TIME_SYSTEM    = UTC
MEAN_ELEMENT_THEORY = SGP/SGP4

EPOCH          = 2025-12-11T04:31:53.819904
MEAN_MOTION    = 14.87271936
ECCENTRICITY   = .0001806
INCLINATION    = 98.1751
RA_OF_ASC_NODE = 239.8084
ARG_OF_PERICENTER = 45.2925
MEAN_ANOMALY   = 314.8437

EPHEMERIS_TYPE = 0
CLASSIFICATION_TYPE = U
NORAD_CAT_ID   = 25977
ELEMENT_SET_NO = 999
REV_AT_EPOCH   = 67210
BSTAR          = .38877E-3
MEAN_MOTION_DOT = .3447E-4
MEAN_MOTION_DDOT = 0

CCSDS_OMM_VERS = 2.0
CREATION_DATE  = 
ORIGINATOR     = 

OBJECT_NAME    = TERRA
OBJECT_ID      = 1999-068A
CENTER_NAME    = EARTH
REF_FRAME      = TEME
TIME_SYSTEM    = UTC
MEAN_ELEMENT_THEORY = SGP/SGP4

EPOCH          = 2025-12-11T03:48:34.889760
MEAN_MOTION    = 14.60898913
ECCENTRICITY   = .0003601
INCLINATION    = 97.9751
RA_OF_ASC_NODE = 36.9013
ARG_OF_PERICENTER = 97.7068
MEAN_ANOMALY   = 322.9844

EPHEMERIS_TYPE = 0
CLASSIFICATION_TYPE = U
NORAD_CAT_ID   = 25994
ELEMENT_SET_NO = 999
REV_AT_EPOCH   = 38215
BSTAR          = .16123E-3
MEAN_MOTION_DOT = .744E-5
MEAN_MOTION_DDOT = 0

CCSDS_OMM_VERS = 2.0
CREATION_DATE  = 
ORIGINATOR     = 

OBJECT_NAME    = SL-16 R/B
OBJECT_ID      = 2000-006B
CENTER_NAME    = EARTH
REF_FRAME      = TEME
TIME_SYSTEM    = UTC
MEAN_ELEMENT_THEORY = SGP/SGP4

EPOCH          = 2025-12-11T04:52:37.674912
MEAN_MOTION    = 14.15810703
ECCENTRICITY   = .0018445
INCLINATION    = 71.0033
RA_OF_ASC_NODE = 283.8878
ARG_OF_PERICENTER = 310.7099
MEAN_ANOMALY   = 49.2421

EPHEMERIS_TYPE = 0
CLASSIFICATION_TYPE = U
NORAD_CAT_ID   = 26070
ELEMENT_SET_NO = 999
REV_AT_EPOCH   = 33603
BSTAR          = -.32129E-5
MEAN_MOTION_DOT = -.54E-6
MEAN_MOTION_DDOT = 0

CCSDS_OMM_VERS = 2.0
CREATION_DATE  = 
ORIGINATOR     = 

OBJECT_NAME    = TITAN 4B R/B
OBJECT_ID      = 2000-047B
CENTER_NAME    = EARTH
REF_FRAME      = TEME
TIME_SYSTEM    = UTC
MEAN_ELEMENT_THEORY = SGP/SGP4

EPOCH          = 2025-12-11T05:14:20.478912
MEAN_MOTION    = 15.08761485
ECCENTRICITY   = .0039042
INCLINATION    = 67.9901
RA_OF_ASC_NODE = 289.1281
ARG_OF_PERICENTER = 146.2934
MEAN_ANOMALY   = 214.0709

EPHEMERIS_TYPE = 0
CLASSIFICATION_TYPE = U
NORAD_CAT_ID   = 26474
ELEMENT_SET_NO = 999
REV_AT_EPOCH   = 37956
BSTAR          = .37424E-3
MEAN_MOTION_DOT = .5866E-4
MEAN_MOTION_DDOT = 0

CCSDS_OMM_VERS = 2.0
CREATION_DATE  = 
ORIGINATOR     = 

OBJECT_NAME    = ENVISAT
OBJECT_ID      = 2002-009A
CENTER_NAME    = EARTH
REF_FRAME      = TEME
TIME_SYSTEM    = UTC
MEAN_ELEMENT_THEORY = SGP/SGP4

EPOCH          = 2025-12-10T21:07:44.228928
MEAN_MOTION    = 14.38998184
ECCENTRICITY   = .00011383
INCLINATION    = 98.3596
RA_OF_ASC_NODE = 295.6680
ARG_OF_PERICENTER = 82.0700
MEAN_ANOMALY   = 294.1634

EPHEMERIS_TYPE = 0
CLASSIFICATION_TYPE = U
NORAD_CAT_ID   = 27386
ELEMENT_SET_NO = 999
REV_AT_EPOCH   = 24640
BSTAR          = .9515592E-4
MEAN_MOTION_DOT = .251E-5
MEAN_MOTION_DDOT = 0

