ISS (ZARYA)             
1 25544U 98067A   25344.92875130  .00014434  00000+0  26509-3 0  9993
2 25544  51.6309 151.4463 0003351 232.8214 127.2469 15.49489378542576
CZ-4B R/B               
1 25732U 99025C   25345.12637866  .00000107  00000+0  72796-4 0  9994
2 25732  98.6771  26.4425 0036240 238.7589 181.4957 14.18242935375615
OKEAN-O                 
1 25860U 99039A   25345.16714051  .00001208  00000+0  16603-3 0  9994
2 25860  97.9603  40.8823 0000805  95.4662 264.6641 14.80157062421298
SL-16 R/B               
1 25861U 99039B   25345.16373316  .00000972  00000+0  13046-3 0  9995
2 25861  98.0127  39.3148 0014803 179.7444 180.3779 14.81582816423751
DELTA 2 R/B             
1 25876U 99041E   25345.15581605  .00001610  00000+0  29862-3 0  9998
2 25876  51.7615 294.7688 0504726  87.0967 278.7589 14.11393857350523
HELIOS 1B               
1 25977U 99064A   25345.18881736  .00003447  00000+0  38877-3 0  9992
2 25977  98.1751 239.8084 0001806  45.2925 314.8437 14.87271936672103
TERRA                   
1 25994U 99068A   25345.15873715  .00000744  00000+0  16123-3 0  9997
2 25994  97.9751  36.9013 0003601  97.7068 322.9844 14.60898913382158
SL-16 R/B               
1 26070U 00006B   25345.20321383 -.00000054  00000+0 -32129-5 0  9994
2 26070  71.0033 283.8878 0018445 310.7099  49.2421 14.15810703336033
TITAN 4B R/B            
1 26474U 00047B   25345.21829258  .00005866  00000+0  37424-3 0  9997
2 26474  67.9901 289.1281 0039042 146.2934 214.0709 15.08761485379563
ENVISAT                 
1 27386U 02009A   25344.88037302  .00000251  00000+0  95156-4 0  9993
2 27386  98.3596 295.6680 0001138  82.0700 294.1634 14.38998184246404
